JY1SAT (JO-97)          
1 43803U 18099AX  26068.68634132  .00017774  00000+0  60804-3 0  9996
2 43803  97.4249 131.3625 0004723 256.6795 103.3919 15.30302628398390
STARLINK-32866          
1 62858U 25022E   26068.55763300  .00025346  00000+0  86531-3 0  9996
2 62858  53.1607 129.9608 0001504  64.0710 296.0446 15.30186452 61885
